HAWK-A                  
1 43765U 18099H   26068.67628545  .00008617  00000+0  36104-3 0  9995
2 43765  97.4051 122.2425 0034260 275.5523  84.1807 15.23231043397949
STARLINK-36065          
1 66898U 25283W   26068.17965560  .00017593  00000+0  60493-3 0  9997
2 66898  53.1607  26.7076 0001235  87.1727 272.9415 15.30188169 15763
